start=new Date('2022-12-22T00:00:00.000Z').valueOf();
sats=[{"APOAPSIS":"558.395","COUNTRY_CODE":"US","LAUNCH_DATE":"2021-06-30","OBJECT_TYPE":"PAYLOAD","REV_AT_EPOCH":"8259","BSTAR":"-0.00005529000000","TLE_LINE1":"1 48879U 21059A   22355.35594956 -.00000799  00000-0 -55290-4 0  9998","PERIAPSIS":"557.665","SITE":"AFETR","OBJECT_NAME":"STARLINK-3003","OBJECT_ID":"2021-059A","SEMIMAJOR_AXIS":"6936.165","INCLINATION":"97.5143","CENTER_NAME":"EARTH","FILE":"3716551","TLE_LINE2":"2 48879  97.5143 120.3223 0000526  97.8036 262.3249 15.02877684 82596","PERIOD":"95.816","MEAN_ANOMALY":"262.3249","MEAN_ELEMENT_THEORY":"SGP4","EPHEMERIS_TYPE":"0","MEAN_MOTION_DDOT":"0.0000000000000","GP_ID":"221116495","MEAN_MOTION":"15.02877684","ECCENTRICITY":"0.00005260","RCS_SIZE":"LARGE","CLASSIFICATION_TYPE":"U","EPOCH":"2022-12-21T08:32:34.041984","NORAD_CAT_ID":"48879","ELEMENT_SET_NO":"999","REF_FRAME":"TEME","DECAY_DATE":null,"ARG_OF_PERICENTER":"97.8036","RA_OF_ASC_NODE":"120.3223","MEAN_MOTION_DOT":"-0.00000799","TIME_SYSTEM":"UTC"},{"CENTER_NAME":"EARTH","FILE":"3716551","TLE_LINE2":"2 48880  97.5140 120.3870 0001945  48.9375 311.2019 15.02869849 82607","SITE":"AFETR","OBJECT_NAME":"STARLINK-3004","OBJECT_ID":"2021-059B","SEMIMAJOR_AXIS":"6936.189","INCLINATION":"97.5140","LAUNCH_DATE":"2021-06-30","OBJECT_TYPE":"PAYLOAD","REV_AT_EPOCH":"8260","BSTAR":"-0.00057964000000","TLE_LINE1":"1 48880U 21059B   22355.42079738 -.00007817  00000-0 -57964-3 0  9991","PERIAPSIS":"556.705","APOAPSIS":"559.403","COUNTRY_CODE":"US","ELEMENT_SET_NO":"999","REF_FRAME":"TEME","DECAY_DATE":null,"RA_OF_ASC_NODE":"120.3870","ARG_OF_PERICENTER":"48.9375","MEAN_MOTION_DOT":"-0.00007817","TIME_SYSTEM":"UTC","RCS_SIZE":"LARGE","CLASSIFICATION_TYPE":"U","EPOCH":"2022-12-21T10:05:56.893632","NORAD_CAT_ID":"48880","MEAN_MOTION_DDOT":"0.0000000000000","MEAN_MOTION":"15.02869849","GP_ID":"221116745","ECCENTRICITY":"0.00019450","PERIOD":"95.817","MEAN_ANOMALY":"311.2019","MEAN_ELEMENT_THEORY":"SGP4","EPHEMERIS_TYPE":"0"},{"MEAN_MOTION":"15.02875933","GP_ID":"221117497","MEAN_MOTION_DDOT":"0.0000000000000","ECCENTRICITY":"0.00021010","EPHEMERIS_TYPE":"0","MEAN_ELEMENT_THEORY":"SGP4","PERIOD":"95.816","MEAN_ANOMALY":"312.6528","MEAN_MOTION_DOT":"-0.00003146","RA_OF_ASC_NODE":"120.4108","ARG_OF_PERICENTER":"47.4875","TIME_SYSTEM":"UTC","REF_FRAME":"TEME","DECAY_DATE":null,"ELEMENT_SET_NO":"999","EPOCH":"2022-12-21T09:59:48.290496","NORAD_CAT_ID":"48881","CLASSIFICATION_TYPE":"U","RCS_SIZE":"LARGE","TLE_LINE1":"1 48881U 21059C   22355.41653114 -.00003146  00000-0 -23053-3 0  9990","BSTAR":"-0.00023053000000","PERIAPSIS":"556.578","LAUNCH_DATE":"2021-06-30","OBJECT_TYPE":"PAYLOAD","REV_AT_EPOCH":"8260","APOAPSIS":"559.493","COUNTRY_CODE":"US","TLE_LINE2":"2 48881  97.5148 120.4108 0002101  47.4875 312.6528 15.02875933 82606","CENTER_NAME":"EARTH","FILE":"3716551","SEMIMAJOR_AXIS":"6936.170","INCLINATION":"97.5148","OBJECT_NAME":"STARLINK-3005","SITE":"AFETR","OBJECT_ID":"2021-059C"},{"MEAN_ANOMALY":"89.8277","PERIOD":"96.107","EPHEMERIS_TYPE":"0","MEAN_ELEMENT_THEORY":"SGP4","ECCENTRICITY":"0.00031750","MEAN_MOTION":"14.98329587","GP_ID":"221117246","MEAN_MOTION_DDOT":"0.0000000000000","CLASSIFICATION_TYPE":"U","RCS_SIZE":"LARGE","NORAD_CAT_ID":"49131","EPOCH":"2022-12-21T10:51:41.562432","DECAY_DATE":null,"REF_FRAME":"TEME","ELEMENT_SET_NO":"999","TIME_SYSTEM":"UTC","MEAN_MOTION_DOT":"-0.00000958","ARG_OF_PERICENTER":"270.2519","RA_OF_ASC_NODE":"335.1203","COUNTRY_CODE":"US","APOAPSIS":"574.266","REV_AT_EPOCH":"7107","LAUNCH_DATE":"2021-09-14","OBJECT_TYPE":"PAYLOAD","PERIAPSIS":"569.852","TLE_LINE1":"1 49131U 21082B   22355.45256438 -.00000958  00000-0 -72480-4 0  9994","BSTAR":"-0.00007248000000","OBJECT_ID":"2021-082B","OBJECT_NAME":"STARLINK-3096","SITE":"AFWTR","INCLINATION":"70.0015","SEMIMAJOR_AXIS":"6950.194","FILE":"3716551","CENTER_NAME":"EARTH","TLE_LINE2":"2 49131  70.0015 335.1203 0003175 270.2519  89.8277 14.98329587 71074"},{"CLASSIFICATION_TYPE":"U","RCS_SIZE":"LARGE","NORAD_CAT_ID":"49132","EPOCH":"2022-12-21T11:38:54.120768","DECAY_DATE":null,"REF_FRAME":"TEME","ELEMENT_SET_NO":"999","TIME_SYSTEM":"UTC","MEAN_MOTION_DOT":"-0.00000027","RA_OF_ASC_NODE":"15.0366","ARG_OF_PERICENTER":"258.0512","MEAN_ANOMALY":"102.0302","PERIOD":"96.107","EPHEMERIS_TYPE":"0","MEAN_ELEMENT_THEORY":"SGP4","ECCENTRICITY":"0.00030780","GP_ID":"221116523","MEAN_MOTION":"14.98329022","MEAN_MOTION_DDOT":"0.0000000000000","OBJECT_ID":"2021-082C","OBJECT_NAME":"STARLINK-3090","SITE":"AFWTR","INCLINATION":"70.0009","SEMIMAJOR_AXIS":"6950.196","FILE":"3716551","CENTER_NAME":"EARTH","TLE_LINE2":"2 49132  70.0009  15.0366 0003078 258.0512 102.0302 14.98329022 70093","COUNTRY_CODE":"US","APOAPSIS":"574.200","REV_AT_EPOCH":"7009","OBJECT_TYPE":"PAYLOAD","LAUNCH_DATE":"2021-09-14","PERIAPSIS":"569.922","TLE_LINE1":"1 49132U 21082C   22355.48534862 -.00000027  00000-0  54987-5 0  9997","BSTAR":"0.00000549870000"},{"INCLINATION":"69.9992","SEMIMAJOR_AXIS":"6950.221","OBJECT_ID":"2021-082D","SITE":"AFWTR","OBJECT_NAME":"STARLINK-3077","TLE_LINE2":"2 49133  69.9992  15.2146 0003447 259.8581 100.2189 14.98321017 70083","FILE":"3716551","CENTER_NAME":"EARTH","COUNTRY_CODE":"US","APOAPSIS":"574.481","PERIAPSIS":"569.690","BSTAR":"0.00001314700000","TLE_LINE1":"1 49133U 21082D   22355.41382734  .00000064  00000-0  13147-4 0  9992","REV_AT_EPOCH":"7008","LAUNCH_DATE":"2021-09-14","OBJECT_TYPE":"PAYLOAD","NORAD_CAT_ID":"49133","EPOCH":"2022-12-21T09:55:54.682176","RCS_SIZE":"LARGE","CLASSIFICATION_TYPE":"U","TIME_SYSTEM":"UTC","RA_OF_ASC_NODE":"15.2146","ARG_OF_PERICENTER":"259.8581","MEAN_MOTION_DOT":"0.00000064","ELEMENT_SET_NO":"999","DECAY_DATE":null,"REF_FRAME":"TEME","MEAN_ELEMENT_THEORY":"SGP4","EPHEMERIS_TYPE":"0","MEAN_ANOMALY":"100.2189","PERIOD":"96.108","ECCENTRICITY":"0.00034470","MEAN_MOTION_DDOT":"0.0000000000000","GP_ID":"221117274","MEAN_MOTION":"14.98321017"},{"MEAN_MOTION":"14.98353418","GP_ID":"221131355","MEAN_MOTION_DDOT":"0.0000000000000","ECCENTRICITY":"0.00032050","PERIOD":"96.105","MEAN_ANOMALY":"85.5115","EPHEMERIS_TYPE":"0","MEAN_ELEMENT_THEORY":"SGP4","DECAY_DATE":null,"REF_FRAME":"TEME","ELEMENT_SET_NO":"999","MEAN_MOTION_DOT":"0.00004682","ARG_OF_PERICENTER":"274.5678","RA_OF_ASC_NODE":"14.9080","TIME_SYSTEM":"UTC","CLASSIFICATION_TYPE":"U","RCS_SIZE":"LARGE","EPOCH":"2022-12-21T13:01:16.509216","NORAD_CAT_ID":"49134","OBJECT_TYPE":"PAYLOAD","LAUNCH_DATE":"2021-09-14","REV_AT_EPOCH":"7130","TLE_LINE1":"1 49134U 21082E   22355.54255219  .00004682  00000-0  39967-3 0  9991","BSTAR":"0.00039967000000","PERIAPSIS":"569.758","APOAPSIS":"574.213","COUNTRY_CODE":"US","CENTER_NAME":"EARTH","FILE":"3717110","TLE_LINE2":"2 49134  70.0020  14.9080 0003205 274.5678  85.5115 14.98353418 71305","OBJECT_NAME":"STARLINK-3078","SITE":"AFWTR","OBJECT_ID":"2021-082E","SEMIMAJOR_AXIS":"6950.120","INCLINATION":"70.0020"},{"PERIAPSIS":"569.901","BSTAR":"-0.00026386000000","TLE_LINE1":"1 49135U 21082F   22355.38308594 -.00003240  00000-0 -26386-3 0  9991","REV_AT_EPOCH":"7107","OBJECT_TYPE":"PAYLOAD","LAUNCH_DATE":"2021-09-14","COUNTRY_CODE":"US","APOAPSIS":"574.221","TLE_LINE2":"2 49135  70.0011 335.3068 0003108 273.0177  87.0626 14.98329070 71077","FILE":"3716551","CENTER_NAME":"EARTH","INCLINATION":"70.0011","SEMIMAJOR_AXIS":"6950.196","OBJECT_ID":"2021-082F","SITE":"AFWTR","OBJECT_NAME":"STARLINK-3073","ECCENTRICITY":"0.00031080","MEAN_MOTION_DDOT":"0.0000000000000","GP_ID":"221117746","MEAN_MOTION":"14.98329070","MEAN_ELEMENT_THEORY":"SGP4","EPHEMERIS_TYPE":"0","MEAN_ANOMALY":"87.0626","PERIOD":"96.107","TIME_SYSTEM":"UTC","ARG_OF_PERICENTER":"273.0177","RA_OF_ASC_NODE":"335.3068","MEAN_MOTION_DOT":"-0.00003240","ELEMENT_SET_NO":"999","REF_FRAME":"TEME","DECAY_DATE":null,"NORAD_CAT_ID":"49135","EPOCH":"2022-12-21T09:11:38.625216","RCS_SIZE":"LARGE","CLASSIFICATION_TYPE":"U"},{"APOAPSIS":"574.206","COUNTRY_CODE":"US","BSTAR":"-0.00000820590000","TLE_LINE1":"1 49136U 21082G   22355.37699520 -.00000191  00000-0 -82059-5 0  9996","PERIAPSIS":"569.921","LAUNCH_DATE":"2021-09-14","OBJECT_TYPE":"PAYLOAD","REV_AT_EPOCH":"7058","SEMIMAJOR_AXIS":"6950.198","INCLINATION":"69.9999","SITE":"AFWTR","OBJECT_NAME":"STARLINK-3084","OBJECT_ID":"2021-082G","TLE_LINE2":"2 49136  69.9999 355.3065 0003083 257.6775 102.4039 14.98328249 70585","CENTER_NAME":"EARTH","FILE":"3716551","MEAN_ELEMENT_THEORY":"SGP4","EPHEMERIS_TYPE":"0","PERIOD":"96.107","MEAN_ANOMALY":"102.4039","MEAN_MOTION_DDOT":"0.0000000000000","GP_ID":"221116024","MEAN_MOTION":"14.98328249","ECCENTRICITY":"0.00030830","EPOCH":"2022-12-21T09:02:52.385280","NORAD_CAT_ID":"49136","RCS_SIZE":"LARGE","CLASSIFICATION_TYPE":"U","RA_OF_ASC_NODE":"355.3065","ARG_OF_PERICENTER":"257.6775","MEAN_MOTION_DOT":"-0.00000191","TIME_SYSTEM":"UTC","ELEMENT_SET_NO":"999","REF_FRAME":"TEME","DECAY_DATE":null},{"FILE":"3716424","CENTER_NAME":"EARTH","TLE_LINE2":"2 49137  70.0004 355.1646 0003174 271.5950  88.4846 14.98324492 70585","OBJECT_ID":"2021-082H","OBJECT_NAME":"STARLINK-3055","SITE":"AFWTR","INCLINATION":"70.0004","SEMIMAJOR_AXIS":"6950.210","REV_AT_EPOCH":"7058","OBJECT_TYPE":"PAYLOAD","LAUNCH_DATE":"2021-09-14","PERIAPSIS":"569.869","TLE_LINE1":"1 49137U 21082H   22355.43899734 -.00000350  00000-0 -21500-4 0  9993","BSTAR":"-0.00002150000000","COUNTRY_CODE":"US","APOAPSIS":"574.281","REF_FRAME":"TEME","DECAY_DATE":null,"ELEMENT_SET_NO":"999","TIME_SYSTEM":"UTC","MEAN_MOTION_DOT":"-0.00000350","ARG_OF_PERICENTER":"271.5950","RA_OF_ASC_NODE":"355.1646","CLASSIFICATION_TYPE":"U","RCS_SIZE":"LARGE","NORAD_CAT_ID":"49137","EPOCH":"2022-12-21T10:32:09.370176","ECCENTRICITY":"0.00031740","MEAN_MOTION":"14.98324492","GP_ID":"221094309","MEAN_MOTION_DDOT":"0.0000000000000","MEAN_ANOMALY":"88.4846","PERIOD":"96.107","EPHEMERIS_TYPE":"0","MEAN_ELEMENT_THEORY":"SGP4"}];
